{
"type": "FeatureCollection",
"name": "德聖公廟路線",
"crs": { "type": "name", "properties": { "name": "urn:ogc:def:crs:OGC:1.3:CRS84" } },
"features": [
{"type":"Feature","properties":{"id":1,"路線":1},"geometry":{"type":"MultiLineString","coordinates":[[[121.660275445306141,25.024718517447265],[121.660273331001804,25.024707022497765],[121.660214130480014,25.024637094865152],[121.660138015523415,25.024607399557066],[121.659833555697119,25.024681158857476],[121.659707754588325,25.024707980410273],[121.659557638979507,25.024766413058558],[121.659492095544664,25.024773118442646],[121.65940012330546,25.024685948420899],[121.659378980261963,25.024577704241793],[121.659319779740173,25.024497239480418],[121.659562924740413,25.024458922908853],[121.65959886791434,25.024498197394568],[121.659636925392618,25.024504902793307],[121.659704583131784,25.024400490114164],[121.659775412327505,25.024322898983147],[121.659851527284118,25.024257760711823],[121.659884827577699,25.02423908134822],[121.659920770751626,25.024195975113692],[121.659969399751674,25.02418448011526],[121.660024371664747,25.024199806779595],[121.660132201186542,25.024205554278229],[121.660184001643159,25.02418448011526],[121.660335174404125,25.024222796772513],[121.660391203469402,25.024216091358355],[121.660429260947694,25.024202680528948],[121.660520176034723,25.024150953030343],[121.660643862839152,25.024086772585122],[121.66066817733919,25.02405516130872],[121.660682977469634,25.023952664083769],[121.660674520252215,25.02390476815491],[121.660744292295746,25.023898062723383],[121.660820407252345,25.02387219891262],[121.660867979100232,25.023817597516437],[121.661028666230777,25.023730426816055],[121.660998008817714,25.023632718924457],[121.661041352056827,25.023618350110304],[121.661066723709069,25.02355321146506],[121.66104743068189,25.023540519004428],[121.661010958931882,25.023502681095135]]]}}
]
}
